{
  "type": "FeatureCollection",
  "features": [
    {
      "type": "Feature",
      "properties": {
        "norad_id": 35918,
        "name": "IRIDIUM 33 DEB",
        "group": "iridium-33-debris",
        "lat": 84.47046557071855,
        "lon": -150.3167506815931,
        "alt_km": 697.0084073504422,
        "timestamp": "2025-12-25T16:53:15.049441+00:00",
        "meta_object_name": "IRIDIUM 33 DEB",
        "meta_object_id": "1997-051UB",
        "meta_epoch": "2025-12-24T23:03:09.203616",
        "meta_mean_motion": 14.51342754,
        "meta_eccentricity": 0.00284851,
        "meta_inclination": 86.3998,
        "meta_ra_of_asc_node": 70.5699,
        "meta_arg_of_pericenter": 130.6271,
        "meta_mean_anomaly": 43.5338,
        "meta_ephemeris_type": 0,
        "meta_classification_type": "U",
        "meta_norad_cat_id": 35918,
        "meta_element_set_no": 999,
        "meta_rev_at_epoch": 85384,
        "meta_bstar": 0.0010816421,
        "meta_mean_motion_dot": 4.351e-05,
        "meta_mean_motion_ddot": 0,
        "tle_line1": "1 35918U 97051UB  25358.96052319  .00004351  00000+0  10816-2 0  9996",
        "tle_line2": "2 35918  86.3998  70.5699 0028485 130.6271  43.5338 14.51342754853844"
      },
      "geometry": {
        "type": "Point",
        "coordinates": [
          -150.3167506815931,
          84.47046557071855
        ]
      }
    },
    {
      "type": "Feature",
      "properties": {
        "norad_id": 35929,
        "name": "IRIDIUM 33 DEB",
        "group": "iridium-33-debris",
        "lat": 85.33617626387189,
        "lon": -1.7378827034305773,
        "alt_km": 549.7753856828649,
        "timestamp": "2025-12-25T16:53:15.049452+00:00",
        "meta_object_name": "IRIDIUM 33 DEB",
        "meta_object_id": "1997-051UN",
        "meta_epoch": "2025-12-23T14:58:27.135552",
        "meta_mean_motion": 15.03115552,
        "meta_eccentricity": 0.00156026,
        "meta_inclination": 86.3353,
        "meta_ra_of_asc_node": 307.468,
        "meta_arg_of_pericenter": 2.5785,
        "meta_mean_anomaly": 357.5526,
        "meta_ephemeris_type": 0,
        "meta_classification_type": "U",
        "meta_norad_cat_id": 35929,
        "meta_element_set_no": 999,
        "meta_rev_at_epoch": 87943,
        "meta_bstar": 0.0026490117,
        "meta_mean_motion_dot": 0.00035991,
        "meta_mean_motion_ddot": 0,
        "tle_line1": "1 35929U 97051UN  25357.62392518  .00035991  00000+0  26490-2 0  9997",
        "tle_line2": "2 35929  86.3353 307.4680 0015602   2.5785 357.5526 15.03115552879439"
      },
      "geometry": {
        "type": "Point",
        "coordinates": [
          -1.7378827034305773,
          85.33617626387189
        ]
      }
    },
    {
      "type": "Feature",
      "properties": {
        "norad_id": 36011,
        "name": "IRIDIUM 33 DEB",
        "group": "iridium-33-debris",
        "lat": 40.59235681425562,
        "lon": 33.00022316054108,
        "alt_km": 759.8896350165433,
        "timestamp": "2025-12-25T16:53:15.049462+00:00",
        "meta_object_name": "IRIDIUM 33 DEB",
        "meta_object_id": "1997-051US",
        "meta_epoch": "2025-12-24T09:18:17.279136",
        "meta_mean_motion": 14.41362135,
        "meta_eccentricity": 0.00188734,
        "meta_inclination": 86.3402,
        "meta_ra_of_asc_node": 30.4215,
        "meta_arg_of_pericenter": 177.2164,
        "meta_mean_anomaly": 239.7358,
        "meta_ephemeris_type": 0,
        "meta_classification_type": "U",
        "meta_norad_cat_id": 36011,
        "meta_element_set_no": 999,
        "meta_rev_at_epoch": 64708,
        "meta_bstar": 0.00041423237,
        "meta_mean_motion_dot": 1.363e-05,
        "meta_mean_motion_ddot": 0,
        "tle_line1": "1 36011U 97051US  25358.38769999  .00001363  00000+0  41423-3 0  9995",
        "tle_line2": "2 36011  86.3402  30.4215 0018873 177.2164 239.7358 14.41362135647088"
      },
      "geometry": {
        "type": "Point",
        "coordinates": [
          33.00022316054108,
          40.59235681425562
        ]
      }
    },
    {
      "type": "Feature",
      "properties": {
        "norad_id": 36012,
        "name": "IRIDIUM 33 DEB",
        "group": "iridium-33-debris",
        "lat": 13.64959230385886,
        "lon": -56.82965599580245,
        "alt_km": 962.6406075079867,
        "timestamp": "2025-12-25T16:53:15.049473+00:00",
        "meta_object_name": "IRIDIUM 33 DEB",
        "meta_object_id": "1997-051UT",
        "meta_epoch": "2025-12-23T02:12:50.688576",
        "meta_mean_motion": 14.19255751,
        "meta_eccentricity": 0.02111422,
        "meta_inclination": 86.4409,
        "meta_ra_of_asc_node": 303.3574,
        "meta_arg_of_pericenter": 229.8799,
        "meta_mean_anomaly": 128.3722,
        "meta_ephemeris_type": 0,
        "meta_classification_type": "U",
        "meta_norad_cat_id": 36012,
        "meta_element_set_no": 999,
        "meta_rev_at_epoch": 65631,
        "meta_bstar": 0.004288895,
        "meta_mean_motion_dot": 0.00011258,
        "meta_mean_motion_ddot": 0,
        "tle_line1": "1 36012U 97051UT  25357.09225334  .00011258  00000+0  42889-2 0  9993",
        "tle_line2": "2 36012  86.4409 303.3574 0211142 229.8799 128.3722 14.19255751656313"
      },
      "geometry": {
        "type": "Point",
        "coordinates": [
          -56.82965599580245,
          13.64959230385886
        ]
      }
    },
    {
      "type": "Feature",
      "properties": {
        "norad_id": 36028,
        "name": "IRIDIUM 33 DEB",
        "group": "iridium-33-debris",
        "lat": 56.49060822135397,
        "lon": -53.82658681751735,
        "alt_km": 564.4054381549322,
        "timestamp": "2025-12-25T16:53:15.049483+00:00",
        "meta_object_name": "IRIDIUM 33 DEB",
        "meta_object_id": "1997-051VK",
        "meta_epoch": "2025-12-24T13:20:34.772064",
        "meta_mean_motion": 14.95853711,
        "meta_eccentricity": 0.001968,
        "meta_inclination": 86.323,
        "meta_ra_of_asc_node": 301.1398,
        "meta_arg_of_pericenter": 16.6795,
        "meta_mean_anomaly": 343.5078,
        "meta_ephemeris_type": 0,
        "meta_classification_type": "U",
        "meta_norad_cat_id": 36028,
        "meta_element_set_no": 999,
        "meta_rev_at_epoch": 87301,
        "meta_bstar": 0.0024246454,
        "meta_mean_motion_dot": 0.00027287,
        "meta_mean_motion_ddot": 0,
        "tle_line1": "1 36028U 97051VK  25358.55595801  .00027287  00000+0  24246-2 0  9997",
        "tle_line2": "2 36028  86.3230 301.1398 0019680  16.6795 343.5078 14.95853711873019"
      },
      "geometry": {
        "type": "Point",
        "coordinates": [
          -53.82658681751735,
          56.49060822135397
        ]
      }
    },
    {
      "type": "Feature",
      "properties": {
        "norad_id": 36080,
        "name": "IRIDIUM 33 DEB",
        "group": "iridium-33-debris",
        "lat": 26.94357699080445,
        "lon": -179.53557694874303,
        "alt_km": 725.0749448079105,
        "timestamp": "2025-12-25T16:53:15.049494+00:00",
        "meta_object_name": "IRIDIUM 33 DEB",
        "meta_object_id": "1997-051VM",
        "meta_epoch": "2025-12-19T07:27:26.572608",
        "meta_mean_motion": 14.4663152,
        "meta_eccentricity": 0.0018893,
        "meta_inclination": 86.3193,
        "meta_ra_of_asc_node": 5.1242,
        "meta_arg_of_pericenter": 135.9522,
        "meta_mean_anomaly": 224.319,
        "meta_ephemeris_type": 0,
        "meta_classification_type": "U",
        "meta_norad_cat_id": 36080,
        "meta_element_set_no": 999,
        "meta_rev_at_epoch": 47509,
        "meta_bstar": 0.00042458,
        "meta_mean_motion_dot": 1.555e-05,
        "meta_mean_motion_ddot": 0,
        "tle_line1": "1 36080U 97051VM  25353.31072422  .00001555  00000+0  42458-3 0  9999",
        "tle_line2": "2 36080  86.3193   5.1242 0018893 135.9522 224.3190 14.46631520475097"
      },
      "geometry": {
        "type": "Point",
        "coordinates": [
          -179.53557694874303,
          26.94357699080445
        ]
      }
    },
    {
      "type": "Feature",
      "properties": {
        "norad_id": 36083,
        "name": "IRIDIUM 33 DEB",
        "group": "iridium-33-debris",
        "lat": 84.61787837940136,
        "lon": 71.33109510615932,
        "alt_km": 741.2975123646529,
        "timestamp": "2025-12-25T16:53:15.049504+00:00",
        "meta_object_name": "IRIDIUM 33 DEB",
        "meta_object_id": "1997-051VQ",
        "meta_epoch": "2025-12-24T08:52:23.766528",
        "meta_mean_motion": 14.43245731,
        "meta_eccentricity": 0.00265084,
        "meta_inclination": 86.3425,
        "meta_ra_of_asc_node": 29.1454,
        "meta_arg_of_pericenter": 183.5397,
        "meta_mean_anomaly": 176.562,
        "meta_ephemeris_type": 0,
        "meta_classification_type": "U",
        "meta_norad_cat_id": 36083,
        "meta_element_set_no": 999,
        "meta_rev_at_epoch": 85617,
        "meta_bstar": 0.00051614904,
        "meta_mean_motion_dot": 1.763e-05,
        "meta_mean_motion_ddot": 0,
        "tle_line1": "1 36083U 97051VQ  25358.36971952  .00001763  00000+0  51615-3 0  9994",
        "tle_line2": "2 36083  86.3425  29.1454 0026508 183.5397 176.5620 14.43245731856170"
      },
      "geometry": {
        "type": "Point",
        "coordinates": [
          71.33109510615932,
          84.61787837940136
        ]
      }
    }
  ]
}